IRIDIUM 166             
1 43570U 18061B   24224.63344909  .00000562  00000+0  19374-3 0  9996
2 43570  86.4014 338.6414 0002068  89.2020 270.9413 14.34220336316712
IRIDIUM 158             
1 43571U 18061C   24224.74127772 -.00000012  00000+0 -11519-4 0  9992
2 43571  86.4014 338.6058 0001924  93.4302 266.7114 14.34217267316694
IRIDIUM 155             
1 43573U 18061E   24224.72858820  .00001244  00000+0  43704-3 0  9993
2 43573  86.4014 338.5472 0002124  88.1311 272.0128 14.34222854316681
IRIDIUM 154             
1 43574U 18061F   24224.84909538  .00000041  00000+0  75113-5 0  9995
2 43574  86.4016 338.5972 0002058 100.8484 259.2944 14.34217721316756
IRIDIUM 163             
1 43575U 18061G   24224.76029148  .00000856  00000+0  29852-3 0  9998
2 43575  86.4015 338.5707 0002298  95.3616 264.7842 14.34216398316716
IRIDIUM 156             
1 43576U 18061H   24224.73493294  .00000036  00000+0  58117-5 0  9991
2 43576  86.4019 338.5878 0002013  94.4726 265.6700 14.34218878316704
IRIDIUM 164             
1 43577U 18061J   24224.78567234  .00000988  00000+0  34583-3 0  9998
2 43577  86.4016 338.5963 0002001 102.3625 257.7794 14.34223372316756
